NORAD_CAT_ID,OBJECT_NAME,OBJECT_TYPE,EPOCH,MEAN_MOTION,ECCENTRICITY,INCLINATION,RA_OF_ASC_NODE,ARG_OF_PERICENTER,MEAN_ANOMALY,BSTAR,MEAN_MOTION_DOT,MEAN_MOTION_DDOT,TLE_LINE0,TLE_LINE1,TLE_LINE2,SEMIMAJOR_AXIS,PERIOD,APOGEE,PERIGEE,DECAYED
53782.0,STARLINK-4679,PAYLOAD,2023-09-20 17:58:32,15.08818898,0.0001398,53.2192,358.678,116.377,243.7366,0.00045604,6.973e-05,0.0,0 STARLINK-4679,1 53782U 22111K   23263.74898974  .00006973  00000-0  45604-3 0  9991,2 53782  53.2192 358.6780 0001398 116.3770 243.7366 15.08818898 57685,6917.945,95.439,540.777,538.843,0.0
53782.0,STARLINK-4679,PAYLOAD,2023-09-21 09:52:24,15.08849813,0.0001197,53.2188,355.7053,105.8771,254.2354,0.0014509,0.00022885,0.0,0 STARLINK-4679,1 53782U 22111K   23264.41139319  .00022885  00000-0  14509-2 0  9996,2 53782  53.2188 355.7053 0001197 105.8771 254.2354 15.08849813 56978,6917.85,95.437,540.543,538.887,0.0
53782.0,STARLINK-4679,PAYLOAD,2023-09-21 13:03:10,15.08859002,0.0001239,53.2188,355.1108,103.4881,256.6249,0.0014784,0.00023331,0.0,0 STARLINK-4679,1 53782U 22111K   23264.54387131  .00023331  00000-0  14784-2 0  9999,2 53782  53.2188 355.1108 0001239 103.4881 256.6249 15.08859002 57809,6917.822,95.436,540.544,538.83,0.0
53782.0,STARLINK-4679,PAYLOAD,2023-09-21 17:49:19,15.08871572,0.000121,53.2186,354.2181,102.4737,257.639,0.0015408,0.0002434,0.0,0 STARLINK-4679,1 53782U 22111K   23264.74258728  .00024340  00000-0  15408-2 0  9995,2 53782  53.2186 354.2181 0001210 102.4737 257.6390 15.08871572 57833,6917.784,95.436,540.486,538.812,0.0
53782.0,STARLINK-4679,PAYLOAD,2023-09-21 22:35:29,15.08854332,0.0001352,53.2192,353.3257,103.6792,256.4351,0.00060237,9.315e-05,0.0,0 STARLINK-4679,1 53782U 22111K   23264.94130894  .00009315  00000-0  60237-3 0  9996,2 53782  53.2192 353.3257 0001352 103.6792 256.4351 15.08854332 57058,6917.837,95.437,540.637,538.766,0.0
53782.0,STARLINK-4679,PAYLOAD,2023-09-22 12:53:57,15.08859731,0.0001277,53.2185,350.6509,97.1795,262.9342,0.0014009,0.0002209,0.0,0 STARLINK-4679,1 53782U 22111K   23265.53746533  .00022090  00000-0  14009-2 0  9995,2 53782  53.2185 350.6509 0001277  97.1795 262.9342 15.08859731 57955,6917.82,95.436,540.568,538.802,0.0
53782.0,STARLINK-4679,PAYLOAD,2023-09-22 17:40:06,15.08869696,0.0001341,53.2184,349.7584,103.2144,256.8998,0.0015925,0.00025168,0.0,0 STARLINK-4679,1 53782U 22111K   23265.73618178  .00025168  00000-0  15925-2 0  9997,2 53782  53.2184 349.7584 0001341 103.2144 256.8998 15.08869696 57988,6917.79,95.436,540.582,538.727,0.0
53782.0,STARLINK-4679,PAYLOAD,2023-09-22 22:26:15,15.08850332,7.46e-05,53.2182,348.8652,124.3197,235.7866,0.00056303,8.687e-05,0.0,0 STARLINK-4679,1 53782U 22111K   23265.93490189  .00008687  00000-0  56303-3 0  9992,2 53782  53.2182 348.8652 0000746 124.3197 235.7866 15.08850332 57204,6917.849,95.437,540.23,539.198,0.0
53782.0,STARLINK-4679,PAYLOAD,2023-09-23 11:09:20,15.08858599,0.0001123,53.2177,346.4865,100.6876,259.4242,0.0017198,0.00027203,0.0,0 STARLINK-4679,1 53782U 22111K   23266.46482139  .00027203  00000-0  17198-2 0  9990,2 53782  53.2177 346.4865 0001123 100.6876 259.4242 15.08858599 58091,6917.824,95.436,540.465,538.912,0.0
53782.0,STARLINK-4679,PAYLOAD,2023-09-23 22:17:02,15.088533,0.0001456,53.2176,344.4051,89.87,270.2459,0.00097049,0.00015197,0.0,0 STARLINK-4679,1 53782U 22111K   23266.92850101  .00015197  00000-0  97049-3 0  9992,2 53782  53.2176 344.4051 0001456  89.8700 270.2459 15.08853300 57352,6917.84,95.437,540.712,538.697,0.0
53782.0,STARLINK-4679,PAYLOAD,2023-09-24 11:00:07,15.08848913,0.0001331,53.2168,342.0256,87.8743,272.2401,0.0014354,0.00022636,0.0,0 STARLINK-4679,1 53782U 22111K   23267.45842076  .00022636  00000-0  14354-2 0  9996,2 53782  53.2168 342.0256 0001331  87.8743 272.2401 15.08848913 57433,6917.853,95.437,540.639,538.797,0.0
53782.0,STARLINK-4679,PAYLOAD,2023-09-24 12:35:30,15.08854931,0.0001331,53.2167,341.7284,87.1852,272.9293,0.0018404,0.00029135,0.0,0 STARLINK-4679,1 53782U 22111K   23267.52466008  .00029135  00000-0  18404-2 0  9992,2 53782  53.2167 341.7284 0001331  87.1852 272.9293 15.08854931 58257,6917.835,95.437,540.621,538.779,0.0
53782.0,STARLINK-4679,PAYLOAD,2023-09-24 17:21:39,15.08870833,0.0001312,53.2168,340.8357,88.9706,271.1437,0.0020625,0.00032717,0.0,0 STARLINK-4679,1 53782U 22111K   23267.72337642  .00032717  00000-0  20625-2 0  9993,2 53782  53.2168 340.8357 0001312  88.9706 271.1437 15.08870833 58288,6917.786,95.436,540.559,538.744,0.0
53782.0,STARLINK-4679,PAYLOAD,2023-09-25 09:15:31,15.08867764,0.0001316,53.2165,337.8627,108.7873,251.3262,0.0032201,0.00051373,0.0,0 STARLINK-4679,1 53782U 22111K   23268.38578179  .00051373  00000-0  32201-2 0  9990,2 53782  53.2165 337.8627 0001316 108.7873 251.3262 15.08867764 57577,6917.796,95.436,540.571,538.75,0.0
53782.0,STARLINK-4679,PAYLOAD,2023-09-25 12:26:17,15.08856677,0.0001275,53.2166,337.268,99.2132,260.9004,0.0022799,0.000362,0.0,0 STARLINK-4679,1 53782U 22111K   23268.51826240  .00036200  00000-0  22799-2 0  9993,2 53782  53.2166 337.2680 0001275  99.2132 260.9004 15.08856677 58401,6917.829,95.436,540.576,538.812,0.0
53782.0,STARLINK-4679,PAYLOAD,2023-09-25 17:12:27,15.08865806,0.0001464,53.217,336.3764,83.7291,276.3868,0.0022843,0.0003628,0.0,0 STARLINK-4679,1 53782U 22111K   23268.71698171  .00036280  00000-0  22843-2 0  9993,2 53782  53.2170 336.3764 0001464  83.7291 276.3868 15.08865806 57629,6917.802,95.436,540.679,538.654,0.0
53782.0,STARLINK-4679,PAYLOAD,2023-09-26 10:41:42,15.08845335,0.0001387,53.2166,333.1048,78.8359,281.279,0.0019732,0.0003126,0.0,0 STARLINK-4679,1 53782U 22111K   23269.44562984  .00031260  00000-0  19732-2 0  9992,2 53782  53.2166 333.1048 0001387  78.8359 281.2790 15.08845335 57734,6917.864,95.437,540.689,538.77,0.0
53782.0,STARLINK-4679,PAYLOAD,2023-09-27 08:57:06,15.08854387,0.0001637,53.2159,328.9423,86.0034,274.1145,0.00082979,0.00012948,0.0,0 STARLINK-4679,1 53782U 22111K   23270.37298802  .00012948  00000-0  82979-3 0  9997,2 53782  53.2159 328.9423 0001637  86.0034 274.1145 15.08854387 57871,6917.836,95.437,540.834,538.569,0.0
53782.0,STARLINK-4679,PAYLOAD,2023-09-27 10:32:29,15.08854986,0.0001544,53.2161,328.6445,88.6613,271.4556,0.00076452,0.00011905,0.0,0 STARLINK-4679,1 53782U 22111K   23270.43922718  .00011905  00000-0  76452-3 0  9995,2 53782  53.2161 328.6445 0001544  88.6613 271.4556 15.08854986 58695,6917.835,95.437,540.768,538.631,0.0
53782.0,STARLINK-4679,PAYLOAD,2023-09-28 10:23:16,15.08836372,0.0001553,53.2166,324.1839,86.6442,273.4728,4.3529e-05,4.05e-06,0.0,0 STARLINK-4679,1 53782U 22111K   23271.43283248  .00000405  00000-0  43529-4 0  9997,2 53782  53.2166 324.1839 0001553  86.6442 273.4728 15.08836372 58036,6917.891,95.438,540.831,538.682,0.0
53782.0,STARLINK-4679,PAYLOAD,2023-09-29 08:38:40,15.08840574,0.0001549,53.2169,320.0202,91.4426,268.6743,0.00012337,1.676e-05,0.0,0 STARLINK-4679,1 53782U 22111K   23272.36019446  .00001676  00000-0  12337-3 0  9990,2 53782  53.2169 320.0202 0001549  91.4426 268.6743 15.08840574 58985,6917.879,95.438,540.815,538.672,0.0
53782.0,STARLINK-4679,PAYLOAD,2023-09-29 15:00:13,15.08849277,0.0001565,53.2168,318.8303,95.6908,264.4262,0.00031143,4.673e-05,0.0,0 STARLINK-4679,1 53782U 22111K   23272.62515107  .00004673  00000-0  31143-3 0  9990,2 53782  53.2168 318.8303 0001565  95.6908 264.4262 15.08849277 58215,6917.852,95.437,540.8,538.634,0.0
53782.0,STARLINK-4679,PAYLOAD,2023-09-30 19:37:08,15.08857194,0.0001339,53.2161,313.4808,85.1525,274.962,0.00030212,4.526e-05,0.0,0 STARLINK-4679,1 53782U 22111K   23273.81746198  .00004526  00000-0  30212-3 0  9991,2 53782  53.2161 313.4808 0001339  85.1525 274.9620 15.08857194 58397,6917.828,95.436,540.619,538.767,0.0
53782.0,STARLINK-4679,PAYLOAD,2023-10-01 11:31:00,15.08841747,0.0001679,53.216,310.5061,82.0298,278.0884,2.6577e-05,1.35e-06,0.0,0 STARLINK-4679,1 53782U 22111K   23274.47986641  .00000135  00000-0  26577-4 0  9995,2 53782  53.2160 310.5061 0001679  82.0298 278.0884 15.08841747 58490,6917.875,95.437,540.902,538.579,0.0
53782.0,STARLINK-4679,PAYLOAD,2023-10-02 01:49:29,15.08831065,0.0001914,53.2175,307.832,82.7471,277.3738,1.0929e-05,-1.14e-06,0.0,0 STARLINK-4679,1 53782U 22111K   23275.07603372 -.00000114  00000-0  10929-4 0  9991,2 53782  53.2175 307.8320 0001914  82.7471 277.3738 15.08831065 58587,6917.908,95.438,541.097,538.449,0.0
53782.0,STARLINK-4679,PAYLOAD,2023-10-02 19:18:43,15.08839221,0.0001612,53.2152,304.5562,89.6958,270.4219,0.00016951,2.411e-05,0.0,0 STARLINK-4679,1 53782U 22111K   23275.80467573  .00002411  00000-0  16951-3 0  9994,2 53782  53.2152 304.5562 0001612  89.6958 270.4219 15.08839221 59508,6917.883,95.438,540.863,538.633,0.0
53782.0,STARLINK-4679,PAYLOAD,2023-10-03 09:37:12,15.08850579,0.0001568,53.2151,301.8805,89.8174,270.2997,0.00060176,9.305e-05,0.0,0 STARLINK-4679,1 53782U 22111K   23276.40083503  .00009305  00000-0  60176-3 0  9995,2 53782  53.2151 301.8805 0001568  89.8174 270.2997 15.08850579 58788,6917.848,95.437,540.798,538.628,0.0
53782.0,STARLINK-4679,PAYLOAD,2023-10-03 19:09:31,15.0883308,0.000125,53.2167,300.0964,90.5108,269.6027,-7.3918e-05,-1.464e-05,0.0,0 STARLINK-4679,1 53782U 22111K   23276.79827735 -.00001464  00000-0 -73918-4 0  9999,2 53782  53.2167 300.0964 0001250  90.5108 269.6027 15.08833080 58847,6917.902,95.438,540.631,538.902,0.0
53782.0,STARLINK-4679,PAYLOAD,2023-10-04 07:52:36,15.08843692,0.0001653,53.2166,297.7173,87.4349,272.6833,0.00029737,4.448e-05,0.0,0 STARLINK-4679,1 53782U 22111K   23277.32819773  .00004448  00000-0  29737-3 0  9994,2 53782  53.2166 297.7173 0001653  87.4349 272.6833 15.08843692 58927,6917.869,95.437,540.878,538.591,0.0
53782.0,STARLINK-4679,PAYLOAD,2023-10-04 12:38:45,15.0885037,0.0001776,53.2159,296.8237,88.6504,271.4692,0.00044481,6.8e-05,0.0,0 STARLINK-4679,1 53782U 22111K   23277.52691602  .00006800  00000-0  44481-3 0  9992,2 53782  53.2159 296.8237 0001776  88.6504 271.4692 15.08850370 59766,6917.849,95.437,540.942,538.485,0.0
